NORAD_CAT_ID,OBJECT_NAME,OBJECT_TYPE,EPOCH,MEAN_MOTION,ECCENTRICITY,INCLINATION,RA_OF_ASC_NODE,ARG_OF_PERICENTER,MEAN_ANOMALY,BSTAR,MEAN_MOTION_DOT,MEAN_MOTION_DDOT,TLE_LINE0,TLE_LINE1,TLE_LINE2,SEMIMAJOR_AXIS,PERIOD,APOGEE,PERIGEE,DECAYED
54008.0,STARLINK-5145,PAYLOAD,2023-06-23 21:38:23,15.08852829,0.0001017,53.2184,327.0943,81.0729,279.0378,9.9259e-05,1.293e-05,0.0,0 STARLINK-5145,1 54008U 22125AW  23174.90166151  .00001293  00000-0  99259-4 0  9998,2 54008  53.2184 327.0943 0001017  81.0729 279.0378 15.08852829 40239,6917.841,95.437,540.41,539.003,0.0
54008.0,STARLINK-5145,PAYLOAD,2023-06-24 16:43:01,15.0884163,9.86e-05,53.2169,323.526,84.9766,275.1339,0.00010107,1.321e-05,0.0,0 STARLINK-5145,1 54008U 22125AW  23175.69655003  .00001321  00000-0  10107-3 0  9990,2 54008  53.2169 323.5260 0000986  84.9766 275.1339 15.08841630 40357,6917.875,95.437,540.423,539.058,0.0
54008.0,STARLINK-5145,PAYLOAD,2023-06-25 02:15:22,15.08825869,0.0001807,53.2175,321.7378,92.2322,267.8877,-5.7053e-05,-1.196e-05,0.0,0 STARLINK-5145,1 54008U 22125AW  23176.09400620 -.00001196  00000-0 -57053-4 0  9992,2 54008  53.2175 321.7378 0001807  92.2322 267.8877 15.08825869 40415,6917.924,95.438,541.039,538.539,0.0
54008.0,STARLINK-5145,PAYLOAD,2023-06-25 16:33:49,15.08845056,9.1e-05,53.2173,319.0675,85.1382,274.9714,3.4618e-07,-2.82e-06,0.0,0 STARLINK-5145,1 54008U 22125AW  23176.69015252 -.00000282  00000-0  34618-6 0  9999,2 54008  53.2173 319.0675 0000910  85.1382 274.9714 15.08845056 40503,6917.865,95.437,540.359,539.1,0.0
54008.0,STARLINK-5145,PAYLOAD,2023-06-26 02:06:08,15.08826612,0.000118,53.2172,317.2803,86.334,273.7787,-0.00020034,-3.474e-05,0.0,0 STARLINK-5145,1 54008U 22125AW  23177.08760113 -.00003474  00000-0 -20034-3 0  9997,2 54008  53.2172 317.2803 0001180  86.3340 273.7787 15.08826612 40562,6917.921,95.438,540.603,538.97,0.0
54008.0,STARLINK-5145,PAYLOAD,2023-06-26 16:24:36,15.0884076,9.11e-05,53.2172,314.6053,92.3038,267.8059,8.649e-05,1.089e-05,0.0,0 STARLINK-5145,1 54008U 22125AW  23177.68375432  .00001089  00000-0  86490-4 0  9996,2 54008  53.2172 314.6053 0000911  92.3038 267.8059 15.08840760 40658,6917.878,95.438,540.373,539.113,0.0
54008.0,STARLINK-5145,PAYLOAD,2023-06-27 17:50:46,15.08850415,8.33e-05,53.2163,309.8473,99.8675,260.2411,0.00053715,8.274e-05,0.0,0 STARLINK-5145,1 54008U 22125AW  23178.74359710  .00008274  00000-0  53715-3 0  9991,2 54008  53.2163 309.8473 0000833  99.8675 260.2411 15.08850415 40817,6917.849,95.437,540.29,539.137,0.0
54008.0,STARLINK-5145,PAYLOAD,2023-06-28 01:47:43,15.0881749,0.0001211,53.217,308.3602,95.1039,265.0091,-0.00033499,-5.612e-05,0.0,0 STARLINK-5145,1 54008U 22125AW  23179.07481024 -.00005612  00000-0 -33499-3 0  9994,2 54008  53.2170 308.3602 0001211  95.1039 265.0091 15.08817490 40865,6917.949,95.439,540.652,538.976,0.0
54008.0,STARLINK-5145,PAYLOAD,2023-06-28 20:52:22,15.08825252,0.0001106,53.216,304.7924,90.1501,269.9618,0.00031965,4.801e-05,0.0,0 STARLINK-5145,1 54008U 22125AW  23179.86970071  .00004801  00000-0  31965-3 0  9999,2 54008  53.2160 304.7924 0001106  90.1501 269.9618 15.08825252 40989,6917.925,95.438,540.556,539.025,0.0
54008.0,STARLINK-5145,PAYLOAD,2023-06-29 08:00:04,15.08841059,0.0001131,53.2164,302.7084,87.7061,272.4061,0.00081704,0.0001274,0.0,0 STARLINK-5145,1 54008U 22125AW  23180.33338206  .00012740  00000-0  81704-3 0  9998,2 54008  53.2164 302.7084 0001131  87.7061 272.4061 15.08841059 41052,6917.877,95.437,540.525,538.96,0.0
54008.0,STARLINK-5145,PAYLOAD,2023-06-29 15:56:59,15.0886664,0.0001174,53.2162,301.2242,79.8462,280.2662,0.0014106,0.00022249,0.0,0 STARLINK-5145,1 54008U 22125AW  23180.66457726  .00022249  00000-0  14106-2 0  9999,2 54008  53.2162 301.2242 0001174  79.8462 280.2662 15.08866640 41107,6917.799,95.436,540.476,538.852,0.0
54008.0,STARLINK-5145,PAYLOAD,2023-06-30 14:12:22,15.08858169,0.0001403,53.2169,297.0589,96.5677,263.5475,0.00032236,4.849e-05,0.0,0 STARLINK-5145,1 54008U 22125AW  23181.59192866  .00004849  00000-0  32236-3 0  9994,2 54008  53.2169 297.0589 0001403  96.5677 263.5475 15.08858169 41247,6917.825,95.436,540.66,538.719,0.0
54008.0,STARLINK-5145,PAYLOAD,2023-07-01 07:41:36,15.08850736,0.0001269,53.2164,293.7896,95.9382,264.1754,7.3856e-05,8.88e-06,0.0,0 STARLINK-5145,1 54008U 22125AW  23182.32056606  .00000888  00000-0  73856-4 0  9990,2 54008  53.2164 293.7896 0001269  95.9382 264.1754 15.08850736 41353,6917.848,95.437,540.59,538.835,0.0
54008.0,STARLINK-5145,PAYLOAD,2023-07-02 10:43:10,15.08841981,0.0001317,53.218,288.7353,89.5788,270.5355,-1.9072e-05,-5.91e-06,0.0,0 STARLINK-5145,1 54008U 22125AW  23183.44664503 -.00000591  00000-0 -19072-4 0  9998,2 54008  53.2180 288.7353 0001317  89.5788 270.5355 15.08841981 41525,6917.874,95.437,540.65,538.828,0.0
54008.0,STARLINK-5145,PAYLOAD,2023-07-03 12:09:19,15.08845451,0.0001141,53.2169,283.9769,94.0814,266.0308,0.00013346,1.837e-05,0.0,0 STARLINK-5145,1 54008U 22125AW  23184.50648118  .00001837  00000-0  13346-3 0  9999,2 54008  53.2169 283.9769 0001141  94.0814 266.0308 15.08845451 41687,6917.864,95.437,540.518,538.939,0.0
54008.0,STARLINK-5145,PAYLOAD,2023-07-04 12:00:07,15.08840443,9.99e-05,53.2167,279.5168,100.9973,259.1132,2.4301e-05,9.9e-07,0.0,0 STARLINK-5145,1 54008U 22125AW  23185.50008397  .00000099  00000-0  24301-4 0  9992,2 54008  53.2167 279.5168 0000999 100.9973 259.1132 15.08840443 41833,6917.879,95.438,540.435,539.053,0.0
54008.0,STARLINK-5145,PAYLOAD,2023-07-05 13:26:17,15.08839089,9.03e-05,53.2159,274.7595,93.6439,266.4657,7.4495e-05,8.98e-06,0.0,0 STARLINK-5145,1 54008U 22125AW  23186.55992588  .00000898  00000-0  74495-4 0  9998,2 54008  53.2159 274.7595 0000903  93.6439 266.4657 15.08839089 41999,6917.883,95.438,540.373,539.123,0.0
54008.0,STARLINK-5145,PAYLOAD,2023-07-06 14:52:27,15.08847204,9.19e-05,53.2154,270.0017,88.7781,271.3317,0.00029184,4.361e-05,0.0,0 STARLINK-5145,1 54008U 22125AW  23187.61976549  .00004361  00000-0  29184-3 0  9998,2 54008  53.2154 270.0017 0000919  88.7781 271.3317 15.08847204 42159,6917.858,95.437,540.359,539.088,0.0
54008.0,STARLINK-5145,PAYLOAD,2023-07-07 09:57:05,15.08847393,9.12e-05,53.2148,266.4329,84.9127,275.1969,0.00025406,3.759e-05,0.0,0 STARLINK-5145,1 54008U 22125AW  23188.41464488  .00003759  00000-0  25406-3 0  9994,2 54008  53.2148 266.4329 0000912  84.9127 275.1969 15.08847393 42279,6917.858,95.437,540.354,539.092,0.0
54008.0,STARLINK-5145,PAYLOAD,2023-07-08 08:12:29,15.08839507,7.74e-05,53.2163,262.2637,118.902,241.205,0.00016602,2.355e-05,0.0,0 STARLINK-5145,1 54008U 22125AW  23189.34200532  .00002355  00000-0  16602-3 0  9994,2 54008  53.2163 262.2637 0000774 118.9020 241.2050 15.08839507 42417,6917.882,95.438,540.282,539.211,0.0
54008.0,STARLINK-5145,PAYLOAD,2023-07-09 04:52:30,15.08836579,9.38e-05,53.2155,258.4015,98.5216,261.5883,-1.5323e-05,-5.32e-06,0.0,0 STARLINK-5145,1 54008U 22125AW  23190.20312939 -.00000532  00000-0 -15323-4 0  9993,2 54008  53.2155 258.4015 0000938  98.5216 261.5883 15.08836579 42546,6917.891,95.438,540.405,539.107,0.0
54008.0,STARLINK-5145,PAYLOAD,2023-07-10 11:04:49,15.08841703,9.1e-05,53.216,252.7537,72.8379,287.2713,0.00013459,1.855e-05,0.0,0 STARLINK-5145,1 54008U 22125AW  23191.46168616  .00001855  00000-0  13459-3 0  9997,2 54008  53.2160 252.7537 0000910  72.8379 287.2713 15.08841703 42736,6917.875,95.437,540.37,539.111,0.0
54008.0,STARLINK-5145,PAYLOAD,2023-07-10 20:37:09,15.08826143,7.9e-05,53.2163,250.9695,57.1467,302.9602,-4.5175e-05,-1.006e-05,0.0,0 STARLINK-5145,1 54008U 22125AW  23191.85914253 -.00001006  00000-0 -45175-4 0  9997,2 54008  53.2163 250.9695 0000790  57.1467 302.9602 15.08826143 42793,6917.923,95.438,540.334,539.241,0.0
54008.0,STARLINK-5145,PAYLOAD,2023-07-11 04:34:06,15.08820354,9.32e-05,53.2161,249.4828,65.2993,294.8096,-2.5197e-05,-6.88e-06,0.0,0 STARLINK-5145,1 54008U 22125AW  23192.19035079 -.00000688  00000-0 -25197-4 0  9992,2 54008  53.2161 249.4828 0000932  65.2993 294.8096 15.08820354 42844,6917.94,95.439,540.45,539.161,0.0
54008.0,STARLINK-5145,PAYLOAD,2023-07-11 23:38:43,15.08832759,9.23e-05,53.2157,245.914,74.056,286.0533,7.0225e-05,8.3e-06,0.0,0 STARLINK-5145,1 54008U 22125AW  23192.98522870  .00000830  00000-0  70225-4 0  9998,2 54008  53.2157 245.9140 0000923  74.0560 286.0533 15.08832759 42969,6917.903,95.438,540.406,539.129,0.0
54008.0,STARLINK-5145,PAYLOAD,2023-07-12 12:21:48,15.08841945,9.54e-05,53.2159,243.5358,66.4858,293.6234,0.00012248,1.662e-05,0.0,0 STARLINK-5145,1 54008U 22125AW  23193.51514520  .00001662  00000-0  12248-3 0  9995,2 54008  53.2159 243.5358 0000954  66.4858 293.6234 15.08841945 43044,6917.874,95.437,540.399,539.079,0.0
54008.0,STARLINK-5145,PAYLOAD,2023-07-13 12:12:35,15.08860826,9.46e-05,53.2149,239.0747,65.4022,294.7069,0.00052563,8.092e-05,0.0,0 STARLINK-5145,1 54008U 22125AW  23194.50873927  .00008092  00000-0  52563-3 0  9992,2 54008  53.2149 239.0747 0000946  65.4022 294.7069 15.08860826 43191,6917.817,95.436,540.336,539.027,0.0
54008.0,STARLINK-5145,PAYLOAD,2023-07-13 20:09:30,15.08854807,9.8e-05,53.2146,237.5878,68.268,291.8416,0.00019351,2.794e-05,0.0,0 STARLINK-5145,1 54008U 22125AW  23194.83993774  .00002794  00000-0  19351-3 0  9992,2 54008  53.2146 237.5878 0000980  68.2680 291.8416 15.08854807 43247,6917.835,95.437,540.378,539.022,0.0
54008.0,STARLINK-5145,PAYLOAD,2023-07-14 10:27:58,15.08851153,9.77e-05,53.2148,234.912,68.3507,291.7589,0.00013466,1.857e-05,0.0,0 STARLINK-5145,1 54008U 22125AW  23195.43609649  .00001857  00000-0  13466-3 0  9994,2 54008  53.2148 234.9120 0000977  68.3507 291.7589 15.08851153 43336,6917.846,95.437,540.387,539.035,0.0
54008.0,STARLINK-5145,PAYLOAD,2023-07-15 08:43:22,15.08852176,9.99e-05,53.2157,230.7487,70.8559,289.2541,1.4678e-05,-5.4e-07,0.0,0 STARLINK-5145,1 54008U 22125AW  23196.36345288 -.00000054  00000-0  14678-4 0  9999,2 54008  53.2157 230.7487 0000999  70.8559 289.2541 15.08852176 43476,6917.843,95.437,540.399,539.017,0.0
